[
    {
        "Altitude(m)": 617719.7754692432,
        "Argument of Periapsis(deg)": 0.0,
        "Eccentricity": 0.0,
        "Inclination(deg)": 60.0,
        "Latitude(deg)": -41.1026523587686,
        "Longitude(deg)": -144.90544838626235,
        "Mean Anomaly(deg)": 229.09090000000003,
        "RAAN(deg)": 105.0,
        "Satellite Name": "Test1 476",
        "Satellite Number": 476,
        "Semi-Major Axis(m)": 6980739.136638005,
        "Time(s)": 0
    },
    {
        "Altitude(m)": 617911.311742532,
        "Argument of Periapsis(deg)": 0.00010418945913296404,
        "Eccentricity": 0.0,
        "Inclination(deg)": 60.0,
        "Latitude(deg)": -41.56584530218006,
        "Longitude(deg)": -144.4010433071898,
        "Mean Anomaly(deg)": 229.71100614546188,
        "RAAN(deg)": 104.99957995086028,
        "Satellite Name": "Test1 476",
        "Satellite Number": 476,
        "Semi-Major Axis(m)": 6980739.136638005,
        "Time(s)": 10
    }
]